DMSP 5D-3 F16 (USA 172) 
1 28054U 03048A   26110.94488693  .00000031  00000+0  40066-4 0  9998
2 28054  98.9939 134.3829 0006172 315.8872 137.0810 14.14475918161392
METEOSAT-9 (MSG-2)      
1 28912U 05049B   26110.94154001  .00000122  00000+0  00000+0 0  9997
2 28912   9.2344  54.7175 0000247 316.5022 222.3831  1.00271828  6429
DMSP 5D-3 F17 (USA 191) 
1 29522U 06050A   26110.96396946  .00000056  00000+0  51591-4 0  9998
2 29522  98.7400 118.7019 0009377 213.8586 146.1990 14.14981300  4337
FENGYUN 3A              
1 32958U 08026A   26110.81441049  .00000058  00000+0  48273-4 0  9994
2 32958  98.6851  52.7325 0007724 297.4484  62.5907 14.19558345927268
GOES 14                 
1 35491U 09033A   26110.82436618 -.00000023  00000+0  00000+0 0  9999
2 35491   1.5426  83.6961 0001573 302.7680 293.1521  1.00115034  6012
DMSP 5D-3 F18 (USA 210) 
1 35951U 09057A   26110.93122336  .00000214  00000+0  13377-3 0  9993
2 35951  98.9014  91.8359 0012093  56.9244 303.3089 14.14862735851490
EWS-G2 (GOES 15)        
1 36411U 10008A   26110.91483455  .00000020  00000+0  00000+0 0  9993
2 36411   1.1261  83.9017 0003589  24.1908 133.5016  1.00271593 59062
COMS 1                  
1 36744U 10032A   26110.75090795 -.00000345  00000+0  00000+0 0  9993
2 36744   4.6577  76.1267 0000902 302.3984 228.7808  1.00271448 50517
FENGYUN 3B              
1 37214U 10059A   26110.95793231 -.00000287  00000+0 -12502-3 0  9992
2 37214  98.9675 156.7143 0021940 352.0501 105.9696 14.14827317799337
SUOMI NPP               
1 37849U 11061A   26110.89413909  .00000052  00000+0  45744-4 0  9997
2 37849  98.7920  52.1732 0002652 112.9197 247.2259 14.19504549750312
METEOSAT-10 (MSG-3)     
1 38552U 12035B   26110.69905725 -.00000006  00000+0  00000+0 0  9992
2 38552   4.5370  61.2545 0002193 289.7556 109.6487  1.00275200 50281
METOP-B                 
1 38771U 12049A   26110.89091900  .00000070  00000+0  51829-4 0  9993
2 38771  98.6558 163.5190 0003215 135.0182 225.1256 14.21431620705127
INSAT-3D                
1 39216U 13038B   26110.88685311 -.00000341  00000+0  00000+0 0  9993
2 39216   1.7786  83.2232 0001494 270.3207 304.1862  1.00274364 46507
FENGYUN 3C              
1 39260U 13052A   26110.93924951  .00000044  00000+0  43252-4 0  9990
2 39260  98.4947  87.4560 0014499 183.5862 176.5211 14.15741200650462
METEOR-M 2              
1 40069U 14037A   26110.91813111  .00000134  00000+0  80354-4 0  9990
2 40069  98.5084  88.6980 0005250 192.2114 167.8937 14.21444571611187
HIMAWARI-8              
1 40267U 14060A   26110.88893312 -.00000278  00000+0  00000+0 0  9998
2 40267   0.0346  78.0728 0000763 280.9193 310.6545  1.00272810 42184
FENGYUN 2G              
1 40367U 14090A   26110.95220006 -.00000305  00000+0  00000+0 0  9995
2 40367   5.4942  73.4871 0003102 147.0300  71.0637  1.00274854 41423
METEOSAT-11 (MSG-4)     
1 40732U 15034A   26110.93443331  .00000064  00000+0  00000+0 0  9997
2 40732   3.0586  71.4077 0001718 297.6490 186.0543  1.00281171  6644
ELEKTRO-L 2             
1 41105U 15074A   26110.71571894 -.00000118  00000+0  00000+0 0  9999
2 41105   6.5495  71.2110 0002357 253.0065 127.7558  1.00270788 37932
INSAT-3DR               
1 41752U 16054A   26110.90789022 -.00000080  00000+0  00000+0 0  9999
2 41752   0.0992  85.4858 0011940 195.5382 328.8082  1.00270469 35241
HIMAWARI-9              
1 41836U 16064A   26110.88589955 -.00000278  00000+0  00000+0 0  9992
2 41836   0.0497 102.7188 0000943 308.4645 257.4585  1.00269029 34638
GOES 16                 
1 41866U 16071A   26110.62655172 -.00000093  00000+0  00000+0 0  9995
2 41866   0.1968  85.1347 0001654 240.9510   3.4886  1.00271047 34521
FENGYUN 4A              
1 41882U 16077A   26110.95705341 -.00000359  00000+0  00000+0 0  9994
2 41882   2.1772  80.8432 0008251 141.0680  95.4478  1.00269351 34354
CYGFM05                 
1 41884U 16078A   26110.86332412  .00020091  00000+0  29861-3 0  9996
2 41884  34.9577 279.4523 0007899 329.6114  30.4151 15.54172986519820
CYGFM04                 
1 41885U 16078B   26110.80743535  .00025602  00000+0  32546-3 0  9990
2 41885  34.9330 250.1907 0006625  10.9322 349.1546 15.58347461520036
CYGFM02                 
1 41886U 16078C   26110.77572815  .00029205  00000+0  33950-3 0  9991
2 41886  34.9412 246.3848 0007675  11.9132 348.1773 15.60661187520189
CYGFM01                 
1 41887U 16078D   26110.87553678  .00021684  00000+0  31518-3 0  9990
2 41887  34.9407 280.8695 0007603 323.6771  36.3436 15.54770896519776
CYGFM08                 
1 41888U 16078E   26110.79801158  .00023955  00000+0  31942-3 0  9995
2 41888  34.9439 262.3584 0008775 352.0094   8.0489 15.57068123520018
CYGFM07                 
1 41890U 16078G   26110.76054277  .00023183  00000+0  30845-3 0  9991
2 41890  34.9452 250.9945 0007080   9.6064 350.4795 15.57148229520032
CYGFM03                 
1 41891U 16078H   26110.79561405  .00024289  00000+0  32303-3 0  9990
2 41891  34.9407 252.7209 0006412 356.9631   3.1054 15.57157816520012
FENGYUN 3D              
1 43010U 17072A   26110.92156889 -.00000125  00000+0 -37283-4 0  9999
2 43010  99.0096  84.3228 0001134 166.6138 193.5068 14.19725923436862
NOAA 20 (JPSS-1)        
1 43013U 17073A   26110.90788396  .00000045  00000+0  42483-4 0  9992
2 43013  98.7740  50.8885 0002149  80.2553 279.8865 14.19546373436349
GOES 17                 
1 43226U 18022A   26110.91475991 -.00000185  00000+0  00000+0 0  9998
2 43226   0.7913  86.4807 0000742 252.2815 110.0557  1.00271788 29857
FENGYUN 2H              
1 43491U 18050A   26110.94821338 -.00000131  00000+0  00000+0 0  9997
2 43491   2.8837  79.7133 0001847 159.4204  30.4515  1.00274574 28868
METOP-C                 
1 43689U 18087A   26110.91324091  .00000074  00000+0  53461-4 0  9996
2 43689  98.6687 171.5518 0001117  45.0097 315.1171 14.21510252386693
GEO-KOMPSAT-2A          
1 43823U 18100A   26110.88659311 -.00000347  00000+0  00000+0 0  9994
2 43823   0.0564  57.9106 0001766   6.0571 232.4415  1.00271814 27053
METEOR-M2 2             
1 44387U 19038A   26110.92346726  .00000016  00000+0  26831-4 0  9996
2 44387  98.9131  97.3724 0001522 137.4490 222.6807 14.24349346353142
ARKTIKA-M 1             
1 47719U 21016A   26109.17632941 -.00000100  00000+0  00000+0 0  9999
2 47719  63.2231  66.1324 7264710 269.6601  14.9938  2.00610602 37603
FENGYUN 3E              
1 49008U 21062A   26110.98243396  .00000086  00000+0  61209-4 0  9991
2 49008  98.7508 115.0268 0000552 226.4433 133.6697 14.19899446248463
GOES 18                 
1 51850U 22021A   26110.76275988  .00000094  00000+0  00000+0 0  9999
2 51850   0.0495  59.7638 0000163  27.1199 259.5578  1.00270200  6016
NOAA 21 (JPSS-2)        
1 54234U 22150A   26110.87166469  .00000051  00000+0  44754-4 0  9998
2 54234  98.7029  50.6334 0002094  33.1709 326.9598 14.19554544178419
METEOSAT-12 (MTG-I1)    
1 54743U 22170C   26110.93243997 -.00000011  00000+0  00000+0 0  9992
2 54743   0.7176  21.3095 0001142 320.3087 202.8038  1.00267952 12409
TIANMU-1 03             
1 55973U 23039A   26110.91409437  .00012960  00000+0  27092-3 0  9993
2 55973  97.5219 282.7202 0001811 317.1565  42.9542 15.45625900171985
TIANMU-1 04             
1 55974U 23039B   26110.92458558  .00013379  00000+0  27449-3 0  9994
2 55974  97.5156 281.8839 0002413 305.4943  54.6081 15.46167359171990
TIANMU-1 05             
1 55975U 23039C   26110.89233799  .00013523  00000+0  28316-3 0  9994
2 55975  97.5201 282.3333 0001999 352.1825   7.9392 15.45565192171962
TIANMU-1 06             
1 55976U 23039D   26110.92488855  .00013117  00000+0  26980-3 0  9998
2 55976  97.5210 282.9469 0002172 339.4000  20.7161 15.46096653171998
FENGYUN 3G              
1 56232U 23055A   26110.91105196  .00023909  00000+0  39413-3 0  9990
2 56232  49.9931 281.3684 0005789 299.1906  60.8481 15.52110426171106
METEOR-M2 3             
1 57166U 23091A   26110.97514060 -.00000012  00000+0  13485-4 0  9990
2 57166  98.6131 167.1101 0003572 354.6134   5.5006 14.24041781146374
TIANMU-1 07             
1 57399U 23101A   26110.91986378  .00005036  00000+0  17979-3 0  9990
2 57399  97.2640 162.9147 0002362  37.7715 322.3691 15.29297163152892
TIANMU-1 08             
1 57400U 23101B   26110.69108854  .00000144  00000+0  76000-5 0  9990
2 57400  97.2634 162.4681 0002804 347.7157  12.4015 15.29212785152851
TIANMU-1 09             
1 57401U 23101C   26110.80570068  .00005197  00000+0  18530-3 0  9999
2 57401  97.2587 162.0276 0002817  31.0958 329.0448 15.29323758152873
TIANMU-1 10             
1 57402U 23101D   26110.90396174  .00005201  00000+0  18582-3 0  9998
2 57402  97.2667 163.1138 0003487   2.5425 357.5832 15.29260621152881
FENGYUN 3F              
1 57490U 23111A   26110.96758852  .00000034  00000+0  36425-4 0  9993
2 57490  98.6859 182.0351 0000829 107.7052 252.4215 14.19928675140742
ARKTIKA-M 2             
1 58584U 23198A   26105.45009400  .00000213  00000+0  00000+0 0  9993
2 58584  63.2109 161.3400 6886040 267.6312  18.8487  2.00607933 17067
TIANMU-1 11             
1 58645U 23205A   26110.96505148  .00004278  00000+0  16710-3 0  9996
2 58645  97.3491 133.4352 0008455 194.5260 165.5737 15.26393524128794
TIANMU-1 12             
1 58646U 23205B   26110.99927025  .00004909  00000+0  19164-3 0  9999
2 58646  97.3479 133.2372 0007376 174.5324 185.5996 15.26338027128786
TIANMU-1 13             
1 58647U 23205C   26110.96319174  .00004491  00000+0  17530-3 0  9998
2 58647  97.3507 133.4592 0008255 158.1225 202.0368 15.26389424128774
TIANMU-1 14             
1 58648U 23205D   26110.94848245  .00004859  00000+0  18954-3 0  9992
2 58648  97.3443 132.6756 0008825 163.0042 197.1495 15.26362296128775
TIANMU-1 19             
1 58660U 23208A   26110.90621959  .00007295  00000+0  24865-3 0  9991
2 58660  97.4438 226.9760 0005984 147.7480 212.4128 15.30660159128569
TIANMU-1 20             
1 58661U 23208B   26110.92319403  .00007803  00000+0  25608-3 0  9993
2 58661  97.4378 227.5694 0007920 158.5362 201.6213 15.31848195128651
TIANMU-1 21             
1 58662U 23208C   26110.92955299  .00008834  00000+0  27072-3 0  9995
2 58662  97.4436 230.0167 0007962 153.3766 206.7887 15.34000168128788
TIANMU-1 22             
1 58663U 23208D   26110.93534122  .00007138  00000+0  24676-3 0  9998
2 58663  97.4433 226.9868 0004256 163.6989 196.4389 15.30213073128578
TIANMU-1 15             
1 58700U 24004A   26110.94563640  .00004836  00000+0  18859-3 0  9991
2 58700  97.4679 297.1473 0007079 178.3283 181.7980 15.26397515127044
TIANMU-1 16             
1 58701U 24004B   26110.92811176  .00004970  00000+0  19357-3 0  9993
2 58701  97.4623 296.4236 0005483 177.7185 182.4080 15.26435505127045
TIANMU-1 17             
1 58702U 24004C   26110.97717051  .00004788  00000+0  18743-3 0  9991
2 58702  97.4652 296.9404 0005245 182.9418 177.1791 15.26284938127045
TIANMU-1 18             
1 58703U 24004D   26110.96191568  .00004843  00000+0  18895-3 0  9990
2 58703  97.4670 297.1477 0004162 172.7427 187.3873 15.26400316127047
INSAT-3DS               
1 58990U 24033A   26110.88864185 -.00000159  00000+0  00000+0 0  9995
2 58990   0.0771  85.2638 0001807 293.4782 232.2261  1.00270977 46495
METEOR-M2 4             
1 59051U 24039A   26110.92492039  .00000009  00000+0  23754-4 0  9999
2 59051  98.6969  70.9574 0006757 345.1149  14.9829 14.22423263111121
GOES 19                 
1 60133U 24119A   26110.91761992 -.00000251  00000+0  00000+0 0  9991
2 60133   0.0082 261.9589 0000355 184.9571  17.2374  1.00271522  6395
FENGYUN 3H              
1 65815U 25219A   26110.82250835  .00000039  00000+0  38649-4 0  9992
2 65815  98.6736  52.7181 0000757 100.3124 259.8138 14.19942817 29249
